{
  "type": "FeatureCollection",
  "features": [
    {
      "type": "Feature",
      "properties": {
        "norad_id": 58647,
        "name": "TIANMU-1 13",
        "group": "weather",
        "lat": 82.35057508076657,
        "lon": -73.77433102724493,
        "alt_km": 488.87904537772374,
        "timestamp": "2025-12-06T18:50:09.814460+00:00",
        "meta_object_name": "TIANMU-1 13",
        "meta_object_id": "2023-205C",
        "meta_epoch": "2025-12-06T05:50:54.598272",
        "meta_mean_motion": 15.24403357,
        "meta_eccentricity": 0.00062009,
        "meta_inclination": 97.3619,
        "meta_ra_of_asc_node": 359.9875,
        "meta_arg_of_pericenter": 296.869,
        "meta_mean_anomaly": 63.1913,
        "meta_ephemeris_type": 0,
        "meta_classification_type": "U",
        "meta_norad_cat_id": 58647,
        "meta_element_set_no": 999,
        "meta_rev_at_epoch": 10808,
        "meta_bstar": 0.00042779463,
        "meta_mean_motion_dot": 0.00010427,
        "meta_mean_motion_ddot": 0,
        "tle_line1": "1 58647U 23205C   25340.24368748  .00010427  00000+0  42779-3 0  9993",
        "tle_line2": "2 58647  97.3619 359.9875 0006200 296.8690  63.1913 15.24403357108085"
      },
      "geometry": {
        "type": "Point",
        "coordinates": [
          -73.77433102724493,
          82.35057508076657
        ]
      }
    },
    {
      "type": "Feature",
      "properties": {
        "norad_id": 58648,
        "name": "TIANMU-1 14",
        "group": "weather",
        "lat": 0.6429852645926442,
        "lon": 179.95654792677317,
        "alt_km": 498.0584095114973,
        "timestamp": "2025-12-06T18:50:09.814482+00:00",
        "meta_object_name": "TIANMU-1 14",
        "meta_object_id": "2023-205D",
        "meta_epoch": "2025-12-06T05:26:54.212640",
        "meta_mean_motion": 15.243869,
        "meta_eccentricity": 0.00070934,
        "meta_inclination": 97.3551,
        "meta_ra_of_asc_node": 359.326,
        "meta_arg_of_pericenter": 301.457,
        "meta_mean_anomaly": 58.5974,
        "meta_ephemeris_type": 0,
        "meta_classification_type": "U",
        "meta_norad_cat_id": 58648,
        "meta_element_set_no": 999,
        "meta_rev_at_epoch": 10808,
        "meta_bstar": 0.00043923085,
        "meta_mean_motion_dot": 0.00010704,
        "meta_mean_motion_ddot": 0,
        "tle_line1": "1 58648U 23205D   25340.22701635  .00010704  00000+0  43923-3 0  9998",
        "tle_line2": "2 58648  97.3551 359.3260 0007093 301.4570  58.5974 15.24386900108083"
      },
      "geometry": {
        "type": "Point",
        "coordinates": [
          179.95654792677317,
          0.6429852645926442
        ]
      }
    },
    {
      "type": "Feature",
      "properties": {
        "norad_id": 58660,
        "name": "TIANMU-1 19",
        "group": "weather",
        "lat": 3.11176670450509,
        "lon": 91.42784639771213,
        "alt_km": 485.05694973189566,
        "timestamp": "2025-12-06T18:50:09.814494+00:00",
        "meta_object_name": "TIANMU-1 19",
        "meta_object_id": "2023-208A",
        "meta_epoch": "2025-12-06T06:14:46.375008",
        "meta_mean_motion": 15.27672812,
        "meta_eccentricity": 0.0004078,
        "meta_inclination": 97.4398,
        "meta_ra_of_asc_node": 91.3115,
        "meta_arg_of_pericenter": 282.2195,
        "meta_mean_anomaly": 77.8588,
        "meta_ephemeris_type": 0,
        "meta_classification_type": "U",
        "meta_norad_cat_id": 58660,
        "meta_element_set_no": 999,
        "meta_rev_at_epoch": 10783,
        "meta_bstar": 0.00060687036,
        "meta_mean_motion_dot": 0.00016361,
        "meta_mean_motion_ddot": 0,
        "tle_line1": "1 58660U 23208A   25340.26025897  .00016361  00000+0  60687-3 0  9999",
        "tle_line2": "2 58660  97.4398  91.3115 0004078 282.2195  77.8588 15.27672812107838"
      },
      "geometry": {
        "type": "Point",
        "coordinates": [
          91.42784639771213,
          3.11176670450509
        ]
      }
    },
    {
      "type": "Feature",
      "properties": {
        "norad_id": 58661,
        "name": "TIANMU-1 20",
        "group": "weather",
        "lat": 51.33943674639767,
        "lon": 82.88404563604853,
        "alt_km": 476.6900964981369,
        "timestamp": "2025-12-06T18:50:09.814504+00:00",
        "meta_object_name": "TIANMU-1 20",
        "meta_object_id": "2023-208B",
        "meta_epoch": "2025-12-06T06:02:35.639232",
        "meta_mean_motion": 15.28863839,
        "meta_eccentricity": 0.00063747,
        "meta_inclination": 97.4335,
        "meta_ra_of_asc_node": 91.7444,
        "meta_arg_of_pericenter": 293.2765,
        "meta_mean_anomaly": 66.7803,
        "meta_ephemeris_type": 0,
        "meta_classification_type": "U",
        "meta_norad_cat_id": 58661,
        "meta_element_set_no": 999,
        "meta_rev_at_epoch": 10790,
        "meta_bstar": 0.0005556878,
        "meta_mean_motion_dot": 0.00015533,
        "meta_mean_motion_ddot": 0,
        "tle_line1": "1 58661U 23208B   25340.25180138  .00015533  00000+0  55569-3 0  9992",
        "tle_line2": "2 58661  97.4335  91.7444 0006374 293.2765  66.7803 15.28863839107902"
      },
      "geometry": {
        "type": "Point",
        "coordinates": [
          82.88404563604853,
          51.33943674639767
        ]
      }
    },
    {
      "type": "Feature",
      "properties": {
        "norad_id": 58662,
        "name": "TIANMU-1 21",
        "group": "weather",
        "lat": 3.158191631355173,
        "lon": 93.74552469811783,
        "alt_km": 473.5655457620014,
        "timestamp": "2025-12-06T18:50:09.814513+00:00",
        "meta_object_name": "TIANMU-1 21",
        "meta_object_id": "2023-208C",
        "meta_epoch": "2025-12-06T06:16:34.265280",
        "meta_mean_motion": 15.31344503,
        "meta_eccentricity": 0.00059176,
        "meta_inclination": 97.4383,
        "meta_ra_of_asc_node": 93.6336,
        "meta_arg_of_pericenter": 287.3724,
        "meta_mean_anomaly": 72.687,
        "meta_ephemeris_type": 0,
        "meta_classification_type": "U",
        "meta_norad_cat_id": 58662,
        "meta_element_set_no": 999,
        "meta_rev_at_epoch": 10800,
        "meta_bstar": 0.00061806524,
        "meta_mean_motion_dot": 0.00018667,
        "meta_mean_motion_ddot": 0,
        "tle_line1": "1 58662U 23208C   25340.26150770  .00018667  00000+0  61807-3 0  9996",
        "tle_line2": "2 58662  97.4383  93.6336 0005917 287.3724  72.6870 15.31344503108006"
      },
      "geometry": {
        "type": "Point",
        "coordinates": [
          93.74552469811783,
          3.158191631355173
        ]
      }
    },
    {
      "type": "Feature",
      "properties": {
        "norad_id": 58663,
        "name": "TIANMU-1 22",
        "group": "weather",
        "lat": 9.375531432285179,
        "lon": 90.66047836444746,
        "alt_km": 484.01310750164794,
        "timestamp": "2025-12-06T18:50:09.814523+00:00",
        "meta_object_name": "TIANMU-1 22",
        "meta_object_id": "2023-208D",
        "meta_epoch": "2025-12-06T06:13:00.216192",
        "meta_mean_motion": 15.27439671,
        "meta_eccentricity": 0.000293,
        "meta_inclination": 97.4392,
        "meta_ra_of_asc_node": 91.3723,
        "meta_arg_of_pericenter": 318.2233,
        "meta_mean_anomaly": 41.8782,
        "meta_ephemeris_type": 0,
        "meta_classification_type": "U",
        "meta_norad_cat_id": 58663,
        "meta_element_set_no": 999,
        "meta_rev_at_epoch": 10784,
        "meta_bstar": 0.00056146201,
        "meta_mean_motion_dot": 0.0001502,
        "meta_mean_motion_ddot": 0,
        "tle_line1": "1 58663U 23208D   25340.25903028  .00015020  00000+0  56146-3 0  9998",
        "tle_line2": "2 58663  97.4392  91.3723 0002930 318.2233  41.8782 15.27439671107840"
      },
      "geometry": {
        "type": "Point",
        "coordinates": [
          90.66047836444746,
          9.375531432285179
        ]
      }
    },
    {
      "type": "Feature",
      "properties": {
        "norad_id": 58700,
        "name": "TIANMU-1 15",
        "group": "weather",
        "lat": -21.070696957461124,
        "lon": -20.618830203521753,
        "alt_km": 499.50672450514503,
        "timestamp": "2025-12-06T18:50:09.814533+00:00",
        "meta_object_name": "TIANMU-1 15",
        "meta_object_id": "2024-004A",
        "meta_epoch": "2025-12-06T06:55:45.910848",
        "meta_mean_motion": 15.245504,
        "meta_eccentricity": 0.00055571,
        "meta_inclination": 97.4624,
        "meta_ra_of_asc_node": 161.7818,
        "meta_arg_of_pericenter": 325.0791,
        "meta_mean_anomaly": 35.0081,
        "meta_ephemeris_type": 0,
        "meta_classification_type": "U",
        "meta_norad_cat_id": 58700,
        "meta_element_set_no": 999,
        "meta_rev_at_epoch": 10636,
        "meta_bstar": 0.0004543013,
        "meta_mean_motion_dot": 0.00011124,
        "meta_mean_motion_ddot": 0,
        "tle_line1": "1 58700U 24004A   25340.28872582  .00011124  00000+0  45430-3 0  9993",
        "tle_line2": "2 58700  97.4624 161.7818 0005557 325.0791  35.0081 15.24550400106364"
      },
      "geometry": {
        "type": "Point",
        "coordinates": [
          -20.618830203521753,
          -21.070696957461124
        ]
      }
    }
  ]
}